{
  "norad_id": 68579,
  "name": "KUIPER-00230",
  "history": [
    {
      "epoch": "2026-04-09T10:25:19.901568Z",
      "apogee_km": 451.5753173162275,
      "perigee_km": 449.1675852363078,
      "latitude_deg": -1.53657955409901e-05,
      "longitude_deg": 155.35075720637374,
      "height_km": 451.158641599007,
      "semi_major_axis_km": 6828.508451276268,
      "eccentricity": 0.0001763,
      "inclination_deg": 51.8754,
      "raan_deg": 149.3662,
      "arg_perigee_deg": 91.2354,
      "mean_anomaly_deg": 268.8835,
      "mean_motion_rev_day": 15.38558398
    }
  ]
}